[{"OBJECT_NAME":"ROBUSTA-3A (MEDITERRANEE)","OBJECT_ID":"2024-128J","EPOCH":"2026-03-02T18:39:39.961440","MEAN_MOTION":15.09886768,"ECCENTRICITY":0.0052462,"INCLINATION":61.9851,"RA_OF_ASC_NODE":224.0652,"ARG_OF_PERICENTER":107.1254,"MEAN_ANOMALY":253.5595,"EPHEMERIS_TYPE":0,"CLASSIFICATION_TYPE":"U","NORAD_CAT_ID":60243,"ELEMENT_SET_NO":999,"REV_AT_EPOCH":9034,"BSTAR":0.00067691,"MEAN_MOTION_DOT":0.00011176,"MEAN_MOTION_DDOT":0},{"OBJECT_NAME":"LASARSAT","OBJECT_ID":"2024-247Q","EPOCH":"2026-03-02T05:24:13.667616","MEAN_MOTION":15.39602768,"ECCENTRICITY":0.00030154,"INCLINATION":44.9757,"RA_OF_ASC_NODE":140.2893,"ARG_OF_PERICENTER":340.5765,"MEAN_ANOMALY":19.5007,"EPHEMERIS_TYPE":0,"CLASSIFICATION_TYPE":"U","NORAD_CAT_ID":62391,"ELEMENT_SET_NO":999,"REV_AT_EPOCH":6679,"BSTAR":0.00089405438,"MEAN_MOTION_DOT":0.00035796,"MEAN_MOTION_DDOT":0},{"OBJECT_NAME":"CROCUBE","OBJECT_ID":"2024-247T","EPOCH":"2026-03-02T06:14:53.404512","MEAN_MOTION":15.40697026,"ECCENTRICITY":0.00032125,"INCLINATION":44.9736,"RA_OF_ASC_NODE":138.7841,"ARG_OF_PERICENTER":324.6496,"MEAN_ANOMALY":35.4178,"EPHEMERIS_TYPE":0,"CLASSIFICATION_TYPE":"U","NORAD_CAT_ID":62394,"ELEMENT_SET_NO":999,"REV_AT_EPOCH":6681,"BSTAR":0.00093069988,"MEAN_MOTION_DOT":0.00038674,"MEAN_MOTION_DDOT":0}]
