ROBUSTA-3A (MEDITERRAN*)
1 60243U 24128J   26061.77754585  .00011176  00000+0  67691-3 0  9992
2 60243  61.9851 224.0652 0052462 107.1254 253.5595 15.09886768 90345
LASARSAT                
1 62391U 24247Q   26061.22515819  .00035796  00000+0  89405-3 0  9996
2 62391  44.9757 140.2893 0003015 340.5765  19.5007 15.39602768 66792
CROCUBE                 
1 62394U 24247T   26061.26034033  .00038674  00000+0  93070-3 0  9998
2 62394  44.9736 138.7841 0003212 324.6496  35.4178 15.40697026 66812
